{
    "links": {
        "self": "http://www.neowsapp.com/rest/v1/neo/3698840?api_key=iIulBulltgU6a56xZRHN4H3l9WmuAYTsLGpBGhQ2"
    },
    "id": "3698840",
    "neo_reference_id": "3698840",
    "name": "(2014 WN202)",
    "designation": "2014 WN202",
    "nasa_jpl_url": "http://ssd.jpl.nasa.gov/sbdb.cgi?sstr=3698840",
    "absolute_magnitude_h": 22.2,
    "estimated_diameter": {
        "kilometers": {
            "estimated_diameter_min": 0.096506147,
            "estimated_diameter_max": 0.2157943048
        },
        "meters": {
            "estimated_diameter_min": 96.5061469579,
            "estimated_diameter_max": 215.7943048444
        },
        "miles": {
            "estimated_diameter_min": 0.059966121,
            "estimated_diameter_max": 0.134088323
        },
        "feet": {
            "estimated_diameter_min": 316.6212271853,
            "estimated_diameter_max": 707.9865871058
        }
    },
    "is_potentially_hazardous_asteroid": false,
    "close_approach_data": [
        {
            "close_approach_date": "2014-10-30",
            "close_approach_date_full": "2014-Oct-30 05:11",
            "epoch_date_close_approach": 1414645860000,
            "relative_velocity": {
                "kilometers_per_second": "9.2664928135",
                "kilometers_per_hour": "33359.3741285341",
                "miles_per_hour": "20728.2177744772"
            },
            "miss_distance": {
                "astronomical": "0.1544103608",
                "lunar": "60.0656303512",
                "kilometers": "23099461.081611496",
                "miles": "14353339.5429148048"
            },
            "orbiting_body": "Earth"
        },
        {
            "close_approach_date": "2171-11-02",
            "close_approach_date_full": "2171-Nov-02 18:40",
            "epoch_date_close_approach": 6369388800000,
            "relative_velocity": {
                "kilometers_per_second": "9.4865143259",
                "kilometers_per_hour": "34151.4515732039",
                "miles_per_hour": "21220.3838955833"
            },
            "miss_distance": {
                "astronomical": "0.1504788587",
                "lunar": "58.5362760343",
                "kilometers": "22511316.741550969",
                "miles": "13987883.5964186122"
            },
            "orbiting_body": "Earth"
        }
    ],
    "orbital_data": {
        "orbit_id": "7",
        "orbit_determination_date": "2017-04-06 08:37:13",
        "first_observation_date": "2014-11-21",
        "last_observation_date": "2014-12-24",
        "data_arc_in_days": 33,
        "observations_used": 20,
        "orbit_uncertainty": "7",
        "minimum_orbit_intersection": ".10718",
        "jupiter_tisserand_invariant": "3.137",
        "epoch_osculation": "2459000.5",
        "eccentricity": ".5793238422920955",
        "semi_major_axis": "2.573445760990114",
        "inclination": "13.46556344485456",
        "ascending_node_longitude": "53.81939455153927",
        "orbital_period": "1507.894495490607",
        "perihelion_distance": "1.082587274803015",
        "perihelion_argument": "339.4673896431713",
        "aphelion_distance": "4.064304247177213",
        "perihelion_time": "2458465.646999303132",
        "mean_anomaly": "127.6926740078228",
        "mean_motion": ".238743493710328",
        "equinox": "J2000",
        "orbit_class": {
            "orbit_class_type": "AMO",
            "orbit_class_description": "Near-Earth asteroid orbits similar to that of 1221 Amor",
            "orbit_class_range": "1.017 AU < q (perihelion) < 1.3 AU"
        }
    },
    "is_sentry_object": false
}